{"type": "FeatureCollection", "features": [{"type": "Feature", "properties": {"norad_id": 26766, "name": "INTELSAT 10 (IS-10)", "group": "intelsat", "lat": 3.202961280407512, "lon": 82.5067639824076, "alt_km": 36154.34064605465, "timestamp": "2025-12-21T16:47:54.396294+00:00", "meta": {"OBJECT_NAME": "INTELSAT 10 (IS-10)", "OBJECT_ID": "2001-019A", "EPOCH": "2025-12-20T17:29:18.796128", "MEAN_MOTION": 0.9907436, "ECCENTRICITY": 0.00077475, "INCLINATION": 8.6473, "RA_OF_ASC_NODE": 61.0766, "ARG_OF_PERICENTER": 228.8053, "MEAN_ANOMALY": 166.3968, "EPHEMERIS_TYPE": 0, "CLASSIFICATION_TYPE": "U", "NORAD_CAT_ID": 26766, "ELEMENT_SET_NO": 999, "REV_AT_EPOCH": 4381, "BSTAR": 0, "MEAN_MOTION_DOT": -1.02e-06, "MEAN_MOTION_DDOT": 0}, "tle": {"line1": "1 26766U 01019A   25354.72868977 -.00000102  00000+0  00000+0 0  9993", "line2": "2 26766   8.6473  61.0766 0007747 228.8053 166.3968  0.99074360 43819"}}, "geometry": {"type": "Point", "coordinates": [82.5067639824076, 3.202961280407512]}}, {"type": "Feature", "properties": {"norad_id": 26900, "name": "INTELSAT 902 (IS-902)", "group": "intelsat", "lat": -3.543138995321415, "lon": -67.77182166817451, "alt_km": 35770.70798062363, "timestamp": "2025-12-21T16:47:54.396318+00:00", "meta": {"OBJECT_NAME": "INTELSAT 902 (IS-902)", "OBJECT_ID": "2001-039A", "EPOCH": "2025-12-15T13:09:02.081664", "MEAN_MOTION": 1.0027087, "ECCENTRICITY": 0.00045028, "INCLINATION": 5.6536, "RA_OF_ASC_NODE": 74.0372, "ARG_OF_PERICENTER": 189.6359, "MEAN_ANOMALY": 327.9329, "EPHEMERIS_TYPE": 0, "CLASSIFICATION_TYPE": "U", "NORAD_CAT_ID": 26900, "ELEMENT_SET_NO": 999, "REV_AT_EPOCH": 8885, "BSTAR": 0, "MEAN_MOTION_DOT": -2.65e-06, "MEAN_MOTION_DDOT": 0}, "tle": {"line1": "1 26900U 01039A   25349.54794076 -.00000265  00000+0  00000+0 0  9997", "line2": "2 26900   5.6536  74.0372 0004502 189.6359 327.9329  1.00270870 88858"}}, "geometry": {"type": "Point", "coordinates": [-67.77182166817451, -3.543138995321415]}}, {"type": "Feature", "properties": {"norad_id": 27380, "name": "INTELSAT 904 (IS-904)", "group": "intelsat", "lat": -5.607918893054955, "lon": -49.17940992326382, "alt_km": 35779.37811257766, "timestamp": "2025-12-21T16:47:54.396334+00:00", "meta": {"OBJECT_NAME": "INTELSAT 904 (IS-904)", "OBJECT_ID": "2002-007A", "EPOCH": "2025-12-21T11:20:13.445376", "MEAN_MOTION": 1.00270601, "ECCENTRICITY": 0.0001875, "INCLINATION": 6.475, "RA_OF_ASC_NODE": 71.332, "ARG_OF_PERICENTER": 249.2884, "MEAN_ANOMALY": 268.2201, "EPHEMERIS_TYPE": 0, "CLASSIFICATION_TYPE": "U", "NORAD_CAT_ID": 27380, "ELEMENT_SET_NO": 999, "REV_AT_EPOCH": 4998, "BSTAR": 0, "MEAN_MOTION_DOT": -2.08e-06, "MEAN_MOTION_DDOT": 0}, "tle": {"line1": "1 27380U 02007A   25355.47237784 -.00000208  00000+0  00000+0 0  9990", "line2": "2 27380   6.4750  71.3320 0001875 249.2884 268.2201  1.00270601 49986"}}, "geometry": {"type": "Point", "coordinates": [-49.17940992326382, -5.607918893054955]}}, {"type": "Feature", "properties": {"norad_id": 27426, "name": "DIRECTV 5 (TEMPO 1)", "group": "intelsat", "lat": 1.8651986875037014, "lon": -127.58825539074445, "alt_km": 35776.3328952501, "timestamp": "2025-12-21T16:47:54.396348+00:00", "meta": {"OBJECT_NAME": "DIRECTV 5 (TEMPO 1)", "OBJECT_ID": "2002-023A", "EPOCH": "2025-12-21T12:14:49.678080", "MEAN_MOTION": 1.0027173, "ECCENTRICITY": 0.0003152, "INCLINATION": 4.423, "RA_OF_ASC_NODE": 77.5504, "ARG_OF_PERICENTER": 199.3766, "MEAN_ANOMALY": 246.9893, "EPHEMERIS_TYPE": 0, "CLASSIFICATION_TYPE": "U", "NORAD_CAT_ID": 27426, "ELEMENT_SET_NO": 999, "REV_AT_EPOCH": 8634, "BSTAR": 0, "MEAN_MOTION_DOT": -3.8e-07, "MEAN_MOTION_DDOT": 0}, "tle": {"line1": "1 27426U 02023A   25355.51029720 -.00000038  00000+0  00000+0 0  9994", "line2": "2 27426   4.4230  77.5504 0003152 199.3766 246.9893  1.00271730 86349"}}, "geometry": {"type": "Point", "coordinates": [-127.58825539074445, 1.8651986875037014]}}, {"type": "Feature", "properties": {"norad_id": 27438, "name": "INTELSAT 905 (IS-905)", "group": "intelsat", "lat": 4.581197117185767, "lon": -154.56718535804228, "alt_km": 35781.34393688078, "timestamp": "2025-12-21T16:47:54.396361+00:00", "meta": {"OBJECT_NAME": "INTELSAT 905 (IS-905)", "OBJECT_ID": "2002-027A", "EPOCH": "2025-12-21T11:38:50.085024", "MEAN_MOTION": 1.00272793, "ECCENTRICITY": 0.0002688, "INCLINATION": 6.3061, "RA_OF_ASC_NODE": 71.9555, "ARG_OF_PERICENTER": 203.6165, "MEAN_ANOMALY": 212.2349, "EPHEMERIS_TYPE": 0, "CLASSIFICATION_TYPE": "U", "NORAD_CAT_ID": 27438, "ELEMENT_SET_NO": 999, "REV_AT_EPOCH": 4958, "BSTAR": 0, "MEAN_MOTION_DOT": 1.12e-06, "MEAN_MOTION_DDOT": 0}, "tle": {"line1": "1 27438U 02027A   25355.48530191  .00000112  00000+0  00000+0 0  9998", "line2": "2 27438   6.3061  71.9555 0002688 203.6165 212.2349  1.00272793 49581"}}, "geometry": {"type": "Point", "coordinates": [-154.56718535804228, 4.581197117185767]}}, {"type": "Feature", "properties": {"norad_id": 27445, "name": "GALAXY 3C (G-3C)", "group": "intelsat", "lat": 0.7030662512496871, "lon": -112.33414256112792, "alt_km": 35785.678301324864, "timestamp": "2025-12-21T16:47:54.396373+00:00", "meta": {"OBJECT_NAME": "GALAXY 3C (G-3C)", "OBJECT_ID": "2002-030A", "EPOCH": "2025-12-21T11:02:13.327872", "MEAN_MOTION": 1.00272042, "ECCENTRICITY": 0.0001154, "INCLINATION": 3.2842, "RA_OF_ASC_NODE": 80.415, "ARG_OF_PERICENTER": 80.4319, "MEAN_ANOMALY": 0.1307, "EPHEMERIS_TYPE": 0, "CLASSIFICATION_TYPE": "U", "NORAD_CAT_ID": 27445, "ELEMENT_SET_NO": 999, "REV_AT_EPOCH": 4471, "BSTAR": 0, "MEAN_MOTION_DOT": -1.32e-06, "MEAN_MOTION_DDOT": 0}, "tle": {"line1": "1 27445U 02030A   25355.45987648 -.00000132  00000+0  00000+0 0  9993", "line2": "2 27445   3.2842  80.4150 0001154  80.4319   0.1307  1.00272042 44712"}}, "geometry": {"type": "Point", "coordinates": [-112.33414256112792, 0.7030662512496871]}}, {"type": "Feature", "properties": {"norad_id": 27513, "name": "INTELSAT 906 (IS-906)", "group": "intelsat", "lat": -2.532909930657116, "lon": 46.78285354305259, "alt_km": 35803.967159367465, "timestamp": "2025-12-21T16:47:54.396386+00:00", "meta": {"OBJECT_NAME": "INTELSAT 906 (IS-906)", "OBJECT_ID": "2002-041A", "EPOCH": "2025-12-21T04:56:34.091232", "MEAN_MOTION": 1.00272969, "ECCENTRICITY": 0.0006318, "INCLINATION": 5.3511, "RA_OF_ASC_NODE": 75.1309, "ARG_OF_PERICENTER": 199.595, "MEAN_ANOMALY": 313.578, "EPHEMERIS_TYPE": 0, "CLASSIFICATION_TYPE": "U", "NORAD_CAT_ID": 27513, "ELEMENT_SET_NO": 999, "REV_AT_EPOCH": 8524, "BSTAR": 0, "MEAN_MOTION_DOT": 3.2e-07, "MEAN_MOTION_DDOT": 0}, "tle": {"line1": "1 27513U 02041A   25355.20595013  .00000032  00000+0  00000+0 0  9993", "line2": "2 27513   5.3511  75.1309 0006318 199.5950 313.5780  1.00272969 85248"}}, "geometry": {"type": "Point", "coordinates": [46.78285354305259, -2.532909930657116]}}, {"type": "Feature", "properties": {"norad_id": 27954, "name": "GALAXY 13 (HORIZONS-1)", "group": "intelsat", "lat": 0.9178105197415264, "lon": -167.5628155239201, "alt_km": 35783.49782185421, "timestamp": "2025-12-21T16:47:54.396398+00:00", "meta": {"OBJECT_NAME": "GALAXY 13 (HORIZONS-1)", "OBJECT_ID": "2003-044A", "EPOCH": "2025-12-21T12:24:14.906016", "MEAN_MOTION": 1.00270258, "ECCENTRICITY": 0.0002371, "INCLINATION": 0.9592, "RA_OF_ASC_NODE": 86.3582, "ARG_OF_PERICENTER": 179.4188, "MEAN_ANOMALY": 220.5966, "EPHEMERIS_TYPE": 0, "CLASSIFICATION_TYPE": "U", "NORAD_CAT_ID": 27954, "ELEMENT_SET_NO": 999, "REV_AT_EPOCH": 4479, "BSTAR": 0, "MEAN_MOTION_DOT": 1.55e-06, "MEAN_MOTION_DDOT": 0}, "tle": {"line1": "1 27954U 03044A   25355.51683919  .00000155  00000+0  00000+0 0  9999", "line2": "2 27954   0.9592  86.3582 0002371 179.4188 220.5966  1.00270258 44796"}}, "geometry": {"type": "Point", "coordinates": [-167.5628155239201, 0.9178105197415264]}}, {"type": "Feature", "properties": {"norad_id": 28358, "name": "INTELSAT 10-02", "group": "intelsat", "lat": -0.02668797428408374, "lon": -18.468812444645895, "alt_km": 35782.30467820915, "timestamp": "2025-12-21T16:47:54.396410+00:00", "meta": {"OBJECT_NAME": "INTELSAT 10-02", "OBJECT_ID": "2004-022A", "EPOCH": "2025-12-21T06:51:38.551968", "MEAN_MOTION": 1.00272906, "ECCENTRICITY": 9.85e-05, "INCLINATION": 0.0216, "RA_OF_ASC_NODE": 73.3158, "ARG_OF_PERICENTER": 234.5861, "MEAN_ANOMALY": 244.1552, "EPHEMERIS_TYPE": 0, "CLASSIFICATION_TYPE": "U", "NORAD_CAT_ID": 28358, "ELEMENT_SET_NO": 999, "REV_AT_EPOCH": 7877, "BSTAR": 0, "MEAN_MOTION_DOT": 1.2e-07, "MEAN_MOTION_DDOT": 0}, "tle": {"line1": "1 28358U 04022A   25355.28586287  .00000012  00000+0  00000+0 0  9991", "line2": "2 28358   0.0216  73.3158 0000985 234.5861 244.1552  1.00272906 78774"}}, "geometry": {"type": "Point", "coordinates": [-18.468812444645895, -0.02668797428408374]}}, {"type": "Feature", "properties": {"norad_id": 28626, "name": "XM-3 (RHYTHM)", "group": "intelsat", "lat": -0.07026924118222179, "lon": 54.2133257840456, "alt_km": 36155.9186850493, "timestamp": "2025-12-21T16:47:54.396422+00:00", "meta": {"OBJECT_NAME": "XM-3 (RHYTHM)", "OBJECT_ID": "2005-008A", "EPOCH": "2025-12-21T11:49:55.600032", "MEAN_MOTION": 0.98949866, "ECCENTRICITY": 0.000199, "INCLINATION": 0.1961, "RA_OF_ASC_NODE": 82.0263, "ARG_OF_PERICENTER": 277.5853, "MEAN_ANOMALY": 340.8771, "EPHEMERIS_TYPE": 0, "CLASSIFICATION_TYPE": "U", "NORAD_CAT_ID": 28626, "ELEMENT_SET_NO": 999, "REV_AT_EPOCH": 4083, "BSTAR": 0, "MEAN_MOTION_DOT": 8.7e-07, "MEAN_MOTION_DDOT": 0}, "tle": {"line1": "1 28626U 05008A   25355.49300463  .00000087  00000+0  00000+0 0  9999", "line2": "2 28626   0.1961  82.0263 0001990 277.5853 340.8771  0.98949866 40834"}}, "geometry": {"type": "Point", "coordinates": [54.2133257840456, -0.07026924118222179]}}]}